STARLINK-1933
1 16791C 20074BE  21326.14049131  .00004204  00000-0  28170-3 0  3262
2 16791  53.0503 163.1153 0002092  75.9370 231.0960 15.06390641    16
